{
  "type": "FeatureCollection",
  "features": [
    {
      "type": "Feature",
      "properties": {
        "norad_id": 28054,
        "name": "DMSP 5D-3 F16 (USA 172)",
        "group": "weather",
        "lat": 9.780550122993276,
        "lon": 12.133913114909742,
        "alt_km": 844.9440020060892,
        "timestamp": "2025-12-22T04:03:38.803398+00:00",
        "meta_object_name": "DMSP 5D-3 F16 (USA 172)",
        "meta_object_id": "2003-048A",
        "meta_epoch": "2025-12-21T19:46:23.467008",
        "meta_mean_motion": 14.14427216,
        "meta_eccentricity": 0.0006268,
        "meta_inclination": 99.0038,
        "meta_ra_of_asc_node": 13.3521,
        "meta_arg_of_pericenter": 291.8507,
        "meta_mean_anomaly": 120.7434,
        "meta_ephemeris_type": 0,
        "meta_classification_type": "U",
        "meta_norad_cat_id": 28054,
        "meta_element_set_no": 999,
        "meta_rev_at_epoch": 14441,
        "meta_bstar": 7.1171e-05,
        "meta_mean_motion_dot": 9.1e-07,
        "meta_mean_motion_ddot": 0,
        "tle_line1": "1 28054U 03048A   25355.82388272  .00000091  00000+0  71171-4 0  9994",
        "tle_line2": "2 28054  99.0038  13.3521 0006268 291.8507 120.7434 14.14427216144416"
      },
      "geometry": {
        "type": "Point",
        "coordinates": [
          12.133913114909742,
          9.780550122993276
        ]
      }
    },
    {
      "type": "Feature",
      "properties": {
        "norad_id": 28912,
        "name": "METEOSAT-9 (MSG-2)",
        "group": "weather",
        "lat": 5.757192188673293,
        "lon": -163.92682759665064,
        "alt_km": 36122.056861223835,
        "timestamp": "2025-12-22T04:03:38.803448+00:00",
        "meta_object_name": "METEOSAT-9 (MSG-2)",
        "meta_object_id": "2005-049B",
        "meta_epoch": "2025-12-21T18:33:02.923200",
        "meta_mean_motion": 1.00265925,
        "meta_eccentricity": 0.0100454,
        "meta_inclination": 8.9455,
        "meta_ra_of_asc_node": 55.869,
        "meta_arg_of_pericenter": 282.9863,
        "meta_mean_anomaly": 74.5349,
        "meta_ephemeris_type": 0,
        "meta_classification_type": "U",
        "meta_norad_cat_id": 28912,
        "meta_element_set_no": 999,
        "meta_rev_at_epoch": 521,
        "meta_bstar": 0,
        "meta_mean_motion_dot": 1.13e-06,
        "meta_mean_motion_ddot": 0,
        "tle_line1": "1 28912U 05049B   25355.77295050  .00000113  00000+0  00000+0 0  9998",
        "tle_line2": "2 28912   8.9455  55.8690 0100454 282.9863  74.5349  1.00265925  5210"
      },
      "geometry": {
        "type": "Point",
        "coordinates": [
          -163.92682759665064,
          5.757192188673293
        ]
      }
    },
    {
      "type": "Feature",
      "properties": {
        "norad_id": 29522,
        "name": "DMSP 5D-3 F17 (USA 191)",
        "group": "weather",
        "lat": -32.66599658782382,
        "lon": 7.021500561647125,
        "alt_km": 853.2120264823425,
        "timestamp": "2025-12-22T04:03:38.803465+00:00",
        "meta_object_name": "DMSP 5D-3 F17 (USA 191)",
        "meta_object_id": "2006-050A",
        "meta_epoch": "2025-12-21T18:02:03.084576",
        "meta_mean_motion": 14.14923348,
        "meta_eccentricity": 0.000979,
        "meta_inclination": 98.739,
        "meta_ra_of_asc_node": 0.9528,
        "meta_arg_of_pericenter": 197.7702,
        "meta_mean_anomaly": 162.3131,
        "meta_ephemeris_type": 0,
        "meta_classification_type": "U",
        "meta_norad_cat_id": 29522,
        "meta_element_set_no": 999,
        "meta_rev_at_epoch": 98732,
        "meta_bstar": 8.6227e-05,
        "meta_mean_motion_dot": 1.23e-06,
        "meta_mean_motion_ddot": 0,
        "tle_line1": "1 29522U 06050A   25355.75142459  .00000123  00000+0  86227-4 0  9992",
        "tle_line2": "2 29522  98.7390   0.9528 0009790 197.7702 162.3131 14.14923348987325"
      },
      "geometry": {
        "type": "Point",
        "coordinates": [
          7.021500561647125,
          -32.66599658782382
        ]
      }
    },
    {
      "type": "Feature",
      "properties": {
        "norad_id": 32958,
        "name": "FENGYUN 3A",
        "group": "weather",
        "lat": -16.470777504814027,
        "lon": 112.91187810352393,
        "alt_km": 831.1505160973775,
        "timestamp": "2025-12-22T04:03:38.803479+00:00",
        "meta_object_name": "FENGYUN 3A",
        "meta_object_id": "2008-026A",
        "meta_epoch": "2025-12-21T20:22:12.827712",
        "meta_mean_motion": 14.19517178,
        "meta_eccentricity": 0.0007654,
        "meta_inclination": 98.6709,
        "meta_ra_of_asc_node": 295.1841,
        "meta_arg_of_pericenter": 280.995,
        "meta_mean_anomaly": 79.0365,
        "meta_ephemeris_type": 0,
        "meta_classification_type": "U",
        "meta_norad_cat_id": 32958,
        "meta_element_set_no": 999,
        "meta_rev_at_epoch": 91024,
        "meta_bstar": 5.4848e-05,
        "meta_mean_motion_dot": 7.2e-07,
        "meta_mean_motion_ddot": 0,
        "tle_line1": "1 32958U 08026A   25355.84875958  .00000072  00000+0  54848-4 0  9998",
        "tle_line2": "2 32958  98.6709 295.1841 0007654 280.9950  79.0365 14.19517178910243"
      },
      "geometry": {
        "type": "Point",
        "coordinates": [
          112.91187810352393,
          -16.470777504814027
        ]
      }
    },
    {
      "type": "Feature",
      "properties": {
        "norad_id": 35491,
        "name": "GOES 14",
        "group": "weather",
        "lat": -0.9145119353486661,
        "lon": 36.19329935598109,
        "alt_km": 35836.61935674828,
        "timestamp": "2025-12-22T04:03:38.803493+00:00",
        "meta_object_name": "GOES 14",
        "meta_object_id": "2009-033A",
        "meta_epoch": "2025-12-21T16:04:23.731104",
        "meta_mean_motion": 1.00096933,
        "meta_eccentricity": 5.37e-05,
        "meta_inclination": 1.2256,
        "meta_ra_of_asc_node": 85.3149,
        "meta_arg_of_pericenter": 184.6894,
        "meta_mean_anomaly": 306.1928,
        "meta_ephemeris_type": 0,
        "meta_classification_type": "U",
        "meta_norad_cat_id": 35491,
        "meta_element_set_no": 999,
        "meta_rev_at_epoch": 481,
        "meta_bstar": 0,
        "meta_mean_motion_dot": 2.4e-07,
        "meta_mean_motion_ddot": 0,
        "tle_line1": "1 35491U 09033A   25355.66971911  .00000024  00000+0  00000+0 0  9991",
        "tle_line2": "2 35491   1.2256  85.3149 0000537 184.6894 306.1928  1.00096933  4818"
      },
      "geometry": {
        "type": "Point",
        "coordinates": [
          36.19329935598109,
          -0.9145119353486661
        ]
      }
    },
    {
      "type": "Feature",
      "properties": {
        "norad_id": 35951,
        "name": "DMSP 5D-3 F18 (USA 210)",
        "group": "weather",
        "lat": -9.43588945530062,
        "lon": 151.03367960098038,
        "alt_km": 854.6317201004767,
        "timestamp": "2025-12-22T04:03:38.803505+00:00",
        "meta_object_name": "DMSP 5D-3 F18 (USA 210)",
        "meta_object_id": "2009-057A",
        "meta_epoch": "2025-12-21T20:22:46.452000",
        "meta_mean_motion": 14.14774897,
        "meta_eccentricity": 0.0011817,
        "meta_inclination": 98.8844,
        "meta_ra_of_asc_node": 332.2048,
        "meta_arg_of_pericenter": 38.7104,
        "meta_mean_anomaly": 321.4913,
        "meta_ephemeris_type": 0,
        "meta_classification_type": "U",
        "meta_norad_cat_id": 35951,
        "meta_element_set_no": 999,
        "meta_rev_at_epoch": 83451,
        "meta_bstar": 0.00014767,
        "meta_mean_motion_dot": 2.4e-06,
        "meta_mean_motion_ddot": 0,
        "tle_line1": "1 35951U 09057A   25355.84914875  .00000240  00000+0  14767-3 0  9993",
        "tle_line2": "2 35951  98.8844 332.2048 0011817  38.7104 321.4913 14.14774897834515"
      },
      "geometry": {
        "type": "Point",
        "coordinates": [
          151.03367960098038,
          -9.43588945530062
        ]
      }
    },
    {
      "type": "Feature",
      "properties": {
        "norad_id": 36411,
        "name": "EWS-G2 (GOES 15)",
        "group": "weather",
        "lat": 0.6539518272946834,
        "lon": -146.80262977035264,
        "alt_km": 35771.53348596688,
        "timestamp": "2025-12-22T04:03:38.803518+00:00",
        "meta_object_name": "EWS-G2 (GOES 15)",
        "meta_object_id": "2010-008A",
        "meta_epoch": "2025-12-21T20:35:09.504960",
        "meta_mean_motion": 1.00270987,
        "meta_eccentricity": 0.0005472,
        "meta_inclination": 0.8348,
        "meta_ra_of_asc_node": 86.0808,
        "meta_arg_of_pericenter": 177.8098,
        "meta_mean_anomaly": 196.9306,
        "meta_ephemeris_type": 0,
        "meta_classification_type": "U",
        "meta_norad_cat_id": 36411,
        "meta_element_set_no": 999,
        "meta_rev_at_epoch": 5786,
        "meta_bstar": 0,
        "meta_mean_motion_dot": 6e-07,
        "meta_mean_motion_ddot": 0,
        "tle_line1": "1 36411U 10008A   25355.85774890  .00000060  00000+0  00000+0 0  9996",
        "tle_line2": "2 36411   0.8348  86.0808 0005472 177.8098 196.9306  1.00270987 57862"
      },
      "geometry": {
        "type": "Point",
        "coordinates": [
          -146.80262977035264,
          0.6539518272946834
        ]
      }
    }
  ]
}